IRIDIUM 159             
1 43578U 18061K   24212.61424049  .00000141  00000+0  43235-4 0  9990
2 43578  86.4003 343.6303 0002115  99.1165 261.0270 14.34218060314973
IRIDIUM 180             
1 43922U 19002A   24211.91605198  .00000342  00000+0  11517-3 0  9997
2 43922  86.3952 280.7981 0002329  97.9042 262.2418 14.34218943290529
IRIDIUM 176             
1 43923U 19002B   24212.54924224  .00000051  00000+0  41803-5 0  9992
2 43923  86.6079 280.5521 0002117  96.6729 263.4729 14.72247405298224
IRIDIUM 168             
1 43924U 19002C   24212.88647690  .00000524  00000+0  17989-3 0  9990
2 43924  86.3953 280.4504 0002201  96.1226 264.0221 14.34217138290600
IRIDIUM 173             
1 43925U 19002D   24212.52494172  .00000167  00000+0  52713-4 0  9995
2 43925  86.3952 280.5186 0002220  96.2545 263.8904 14.34217236290539
IRIDIUM 169             
1 43926U 19002E   24212.31944973  .00000669  00000+0  21223-3 0  9990
2 43926  86.4245 312.2369 0004223  93.4052 266.7630 14.38613504291473
IRIDIUM 172             
1 43927U 19002F   24212.65813605  .00000317  00000+0  10624-3 0  9998
2 43927  86.3950 280.4686 0002191  92.1231 268.0216 14.34217142290569
IRIDIUM 175             
1 43928U 19002G   24212.61155095  .00001703  00000+0  26607-3 0  9995
2 43928  86.1478 251.2113 0002676  93.2812 266.8711 14.72260741298221
